[{"OBJECT_NAME":"GALAXY 33 (G-33)","OBJECT_ID":"2022-128A","EPOCH":"2026-03-03T03:49:38.807616","MEAN_MOTION":1.00274338,"ECCENTRICITY":0.0001979,"INCLINATION":0.0185,"RA_OF_ASC_NODE":201.8468,"ARG_OF_PERICENTER":129.4039,"MEAN_ANOMALY":114.074,"EPHEMERIS_TYPE":0,"CLASSIFICATION_TYPE":"U","NORAD_CAT_ID":54026,"ELEMENT_SET_NO":999,"REV_AT_EPOCH":1267,"BSTAR":0,"MEAN_MOTION_DOT":6.3e-7,"MEAN_MOTION_DDOT":0},{"OBJECT_NAME":"GALAXY 34 (G-34)","OBJECT_ID":"2022-128B","EPOCH":"2026-03-03T03:49:38.807616","MEAN_MOTION":1.00270922,"ECCENTRICITY":0.0001457,"INCLINATION":0.0187,"RA_OF_ASC_NODE":155.5161,"ARG_OF_PERICENTER":188.5908,"MEAN_ANOMALY":105.3224,"EPHEMERIS_TYPE":0,"CLASSIFICATION_TYPE":"U","NORAD_CAT_ID":54027,"ELEMENT_SET_NO":999,"REV_AT_EPOCH":1284,"BSTAR":0,"MEAN_MOTION_DOT":0,"MEAN_MOTION_DDOT":0},{"OBJECT_NAME":"GALAXY 31 (G-31)","OBJECT_ID":"2022-153A","EPOCH":"2026-03-03T03:49:38.807616","MEAN_MOTION":1.00272061,"ECCENTRICITY":0.0001497,"INCLINATION":0.0171,"RA_OF_ASC_NODE":204.7217,"ARG_OF_PERICENTER":145.0138,"MEAN_ANOMALY":107.5864,"EPHEMERIS_TYPE":0,"CLASSIFICATION_TYPE":"U","NORAD_CAT_ID":54243,"ELEMENT_SET_NO":999,"REV_AT_EPOCH":606,"BSTAR":0,"MEAN_MOTION_DOT":-2.0e-8,"MEAN_MOTION_DDOT":0},{"OBJECT_NAME":"GALAXY 32 (G-32)","OBJECT_ID":"2022-153B","EPOCH":"2026-03-02T23:56:58.848576","MEAN_MOTION":1.00268623,"ECCENTRICITY":0.0003063,"INCLINATION":0.0218,"RA_OF_ASC_NODE":135.1262,"ARG_OF_PERICENTER":220.4686,"MEAN_ANOMALY":73.4327,"EPHEMERIS_TYPE":0,"CLASSIFICATION_TYPE":"U","NORAD_CAT_ID":54244,"ELEMENT_SET_NO":999,"REV_AT_EPOCH":1207,"BSTAR":0,"MEAN_MOTION_DOT":0,"MEAN_MOTION_DDOT":0},{"OBJECT_NAME":"GALAXY 35 (G-35)","OBJECT_ID":"2022-170A","EPOCH":"2026-03-03T03:33:38.719584","MEAN_MOTION":1.00271395,"ECCENTRICITY":0.0002087,"INCLINATION":0.0214,"RA_OF_ASC_NODE":117.8698,"ARG_OF_PERICENTER":222.7518,"MEAN_ANOMALY":140.599,"EPHEMERIS_TYPE":0,"CLASSIFICATION_TYPE":"U","NORAD_CAT_ID":54741,"ELEMENT_SET_NO":999,"REV_AT_EPOCH":1183,"BSTAR":0,"MEAN_MOTION_DOT":-1.78e-6,"MEAN_MOTION_DDOT":0},{"OBJECT_NAME":"GALAXY 36 (G-36)","OBJECT_ID":"2022-170B","EPOCH":"2026-03-03T03:33:38.719584","MEAN_MOTION":1.0027078,"ECCENTRICITY":0.0002022,"INCLINATION":0.0137,"RA_OF_ASC_NODE":149.1774,"ARG_OF_PERICENTER":245.4403,"MEAN_ANOMALY":90.6907,"EPHEMERIS_TYPE":0,"CLASSIFICATION_TYPE":"U","NORAD_CAT_ID":54742,"ELEMENT_SET_NO":999,"REV_AT_EPOCH":1171,"BSTAR":0,"MEAN_MOTION_DOT":-2.01e-6,"MEAN_MOTION_DDOT":0},{"OBJECT_NAME":"GALAXY 37 (G-37)","OBJECT_ID":"2023-112A","EPOCH":"2026-03-03T03:49:38.807616","MEAN_MOTION":1.00272089,"ECCENTRICITY":0.0002079,"INCLINATION":0.0203,"RA_OF_ASC_NODE":123.9571,"ARG_OF_PERICENTER":223.9116,"MEAN_ANOMALY":103.4479,"EPHEMERIS_TYPE":0,"CLASSIFICATION_TYPE":"U","NORAD_CAT_ID":57493,"ELEMENT_SET_NO":999,"REV_AT_EPOCH":947,"BSTAR":0,"MEAN_MOTION_DOT":3.3e-7,"MEAN_MOTION_DDOT":0}]
