GALAXY 33 (G-33)        
1 54026U 22128A   26062.15947694  .00000063  00000+0  00000+0 0  9990
2 54026   0.0185 201.8468 0001979 129.4039 114.0740  1.00274338 12677
GALAXY 34 (G-34)        
1 54027U 22128B   26062.15947694  .00000000  00000+0  00000+0 0  9992
2 54027   0.0187 155.5161 0001457 188.5908 105.3224  1.00270922 12841
GALAXY 31 (G-31)        
1 54243U 22153A   26062.15947694 -.00000002  00000+0  00000+0 0  9993
2 54243   0.0171 204.7217 0001497 145.0138 107.5864  1.00272061  6067
GALAXY 32 (G-32)        
1 54244U 22153B   26061.99790334  .00000000  00000+0  00000+0 0  9999
2 54244   0.0218 135.1262 0003063 220.4686  73.4327  1.00268623 12076
GALAXY 35 (G-35)        
1 54741U 22170A   26062.14836481 -.00000178  00000+0  00000+0 0  9999
2 54741   0.0214 117.8698 0002087 222.7518 140.5990  1.00271395 11833
GALAXY 36 (G-36)        
1 54742U 22170B   26062.14836481 -.00000201  00000+0  00000+0 0  9997
2 54742   0.0137 149.1774 0002022 245.4403  90.6907  1.00270780 11712
GALAXY 37 (G-37)        
1 57493U 23112A   26062.15947694  .00000033  00000+0  00000+0 0  9992
2 57493   0.0203 123.9571 0002079 223.9116 103.4479  1.00272089  9472
